{
    "links": {
        "self": "http://www.neowsapp.com/rest/v1/neo/3766359?api_key=iIulBulltgU6a56xZRHN4H3l9WmuAYTsLGpBGhQ2"
    },
    "id": "3766359",
    "neo_reference_id": "3766359",
    "name": "(2017 AD5)",
    "designation": "2017 AD5",
    "nasa_jpl_url": "http://ssd.jpl.nasa.gov/sbdb.cgi?sstr=3766359",
    "absolute_magnitude_h": 24.1,
    "estimated_diameter": {
        "kilometers": {
            "estimated_diameter_min": 0.040230458,
            "estimated_diameter_max": 0.0899580388
        },
        "meters": {
            "estimated_diameter_min": 40.2304579834,
            "estimated_diameter_max": 89.9580388169
        },
        "miles": {
            "estimated_diameter_min": 0.0249980399,
            "estimated_diameter_max": 0.0558973165
        },
        "feet": {
            "estimated_diameter_min": 131.9896957704,
            "estimated_diameter_max": 295.1379320721
        }
    },
    "is_potentially_hazardous_asteroid": false,
    "close_approach_data": [
        {
            "close_approach_date": "1999-11-24",
            "close_approach_date_full": "1999-Nov-24 20:30",
            "epoch_date_close_approach": 943475400000,
            "relative_velocity": {
                "kilometers_per_second": "11.1248360789",
                "kilometers_per_hour": "40049.4098841941",
                "miles_per_hour": "24885.1458249871"
            },
            "miss_distance": {
                "astronomical": "0.069355553",
                "lunar": "26.979310117",
                "kilometers": "10375443.00147211",
                "miles": "6447001.329690718"
            },
            "orbiting_body": "Mars"
        },
        {
            "close_approach_date": "2016-12-24",
            "close_approach_date_full": "2016-Dec-24 14:59",
            "epoch_date_close_approach": 1482591540000,
            "relative_velocity": {
                "kilometers_per_second": "8.1321576772",
                "kilometers_per_hour": "29275.7676380907",
                "miles_per_hour": "18190.8235082348"
            },
            "miss_distance": {
                "astronomical": "0.0272122913",
                "lunar": "10.5855813157",
                "kilometers": "4070900.816299531",
                "miles": "2529540.4708982878"
            },
            "orbiting_body": "Earth"
        }
    ],
    "orbital_data": {
        "orbit_id": "5",
        "orbit_determination_date": "2017-04-06 08:21:07",
        "first_observation_date": "2017-01-04",
        "last_observation_date": "2017-01-28",
        "data_arc_in_days": 24,
        "observations_used": 47,
        "orbit_uncertainty": "7",
        "minimum_orbit_intersection": ".00376969",
        "jupiter_tisserand_invariant": "3.935",
        "epoch_osculation": "2459000.5",
        "eccentricity": ".4838944816412749",
        "semi_major_axis": "1.788551250388507",
        "inclination": ".8229646186584044",
        "ascending_node_longitude": "40.86805409352542",
        "orbital_period": "873.6762111928108",
        "perihelion_distance": ".9230811701929064",
        "perihelion_argument": "23.59992801992745",
        "aphelion_distance": "2.654021330584108",
        "perihelion_time": "2458598.708180396805",
        "mean_anomaly": "165.55910897433",
        "mean_motion": ".412051965462697",
        "equinox": "J2000",
        "orbit_class": {
            "orbit_class_type": "APO",
            "orbit_class_description": "Near-Earth asteroid orbits which cross the Earth’s orbit similar to that of 1862 Apollo",
            "orbit_class_range": "a (semi-major axis) > 1.0 AU; q (perihelion) < 1.017 AU"
        }
    },
    "is_sentry_object": false
}